ONEWEB-0310             
1 49096U 21075X   24014.88465847  .00000119  00000+0  29449-3 0  9995
2 49096  87.9026 166.5919 0001622  91.0851 269.0464 13.12441194119196
ONEWEB-0311             
1 49097U 21075Y   24014.89522366 -.00005499  00000+0 -14199-1 0  9999
2 49097  87.9212 181.6928 0000841  78.9552 281.1674 13.17675141117176
ONEWEB-0312             
1 49098U 21075Z   24014.90948849  .00000057  00000+0  11274-3 0  9996
2 49098  87.9212 181.7223 0001430  70.2819 289.8467 13.17647761117152
ONEWEB-0313             
1 49099U 21075AA  24014.88731897 -.00000023  00000+0 -91953-4 0  9995
2 49099  87.9211 181.7288 0001366  80.3127 279.8159 13.17650245117142
ONEWEB-0315             
1 49101U 21075AC  24014.93550979  .00000228  00000+0  59862-3 0  9992
2 49101  87.9012 166.5837 0001437 101.4727 258.6563 13.12441968119181
ONEWEB-0316             
1 49102U 21075AD  24014.89474220 -.00000026  00000+0 -98435-4 0  9990
2 49102  87.9239 151.4143 0001203 101.0828 259.0440 13.18685386120669
